[{"OBJECT_NAME":"ONEWEB-0411","OBJECT_ID":"2022-012B","EPOCH":"2025-07-27T17:20:40.495488","MEAN_MOTION":13.10370803,"ECCENTRICITY":0.0001831,"INCLINATION":87.8803,"RA_OF_ASC_NODE":100.9827,"ARG_OF_PERICENTER":57.9407,"MEAN_ANOMALY":302.1898,"EPHEMERIS_TYPE":0,"CLASSIFICATION_TYPE":"U","NORAD_CAT_ID":51623,"ELEMENT_SET_NO":999,"REV_AT_EPOCH":16679,"BSTAR":-0.0016714,"MEAN_MOTION_DOT":-5.71e-6,"MEAN_MOTION_DDOT":0},{"OBJECT_NAME":"ONEWEB-0415","OBJECT_ID":"2022-012C","EPOCH":"2025-07-28T04:15:37.537056","MEAN_MOTION":13.10370012,"ECCENTRICITY":0.0001762,"INCLINATION":87.88,"RA_OF_ASC_NODE":100.8954,"ARG_OF_PERICENTER":67.0476,"MEAN_ANOMALY":293.0837,"EPHEMERIS_TYPE":0,"CLASSIFICATION_TYPE":"U","NORAD_CAT_ID":51624,"ELEMENT_SET_NO":999,"REV_AT_EPOCH":16813,"BSTAR":-0.00085543,"MEAN_MOTION_DOT":-2.86e-6,"MEAN_MOTION_DDOT":0},{"OBJECT_NAME":"ONEWEB-0416","OBJECT_ID":"2022-012D","EPOCH":"2025-07-27T17:32:37.345920","MEAN_MOTION":13.1037314,"ECCENTRICITY":0.0001756,"INCLINATION":87.8808,"RA_OF_ASC_NODE":101.003,"ARG_OF_PERICENTER":76.3325,"MEAN_ANOMALY":283.7998,"EPHEMERIS_TYPE":0,"CLASSIFICATION_TYPE":"U","NORAD_CAT_ID":51625,"ELEMENT_SET_NO":999,"REV_AT_EPOCH":16683,"BSTAR":-0.0020808,"MEAN_MOTION_DOT":-7.14e-6,"MEAN_MOTION_DDOT":0},{"OBJECT_NAME":"ONEWEB-0422","OBJECT_ID":"2022-012E","EPOCH":"2025-07-27T21:41:47.061888","MEAN_MOTION":13.17650314,"ECCENTRICITY":0.0002518,"INCLINATION":87.9042,"RA_OF_ASC_NODE":70.391,"ARG_OF_PERICENTER":78.2266,"MEAN_ANOMALY":281.9148,"EPHEMERIS_TYPE":0,"CLASSIFICATION_TYPE":"U","NORAD_CAT_ID":51626,"ELEMENT_SET_NO":999,"REV_AT_EPOCH":17110,"BSTAR":0.00020278,"MEAN_MOTION_DOT":9.2e-7,"MEAN_MOTION_DDOT":0},{"OBJECT_NAME":"ONEWEB-0423","OBJECT_ID":"2022-012F","EPOCH":"2025-07-27T21:32:03.909408","MEAN_MOTION":13.17649871,"ECCENTRICITY":0.0001853,"INCLINATION":87.9043,"RA_OF_ASC_NODE":70.4005,"ARG_OF_PERICENTER":84.1823,"MEAN_ANOMALY":275.9519,"EPHEMERIS_TYPE":0,"CLASSIFICATION_TYPE":"U","NORAD_CAT_ID":51627,"ELEMENT_SET_NO":999,"REV_AT_EPOCH":17099,"BSTAR":0.00018129,"MEAN_MOTION_DOT":8.3e-7,"MEAN_MOTION_DDOT":0},{"OBJECT_NAME":"ONEWEB-0425","OBJECT_ID":"2022-012G","EPOCH":"2025-07-27T15:57:01.014048","MEAN_MOTION":13.10376129,"ECCENTRICITY":0.0001691,"INCLINATION":87.881,"RA_OF_ASC_NODE":100.986,"ARG_OF_PERICENTER":86.8152,"MEAN_ANOMALY":273.3169,"EPHEMERIS_TYPE":0,"CLASSIFICATION_TYPE":"U","NORAD_CAT_ID":51628,"ELEMENT_SET_NO":999,"REV_AT_EPOCH":16682,"BSTAR":-0.00098008,"MEAN_MOTION_DOT":-3.29e-6,"MEAN_MOTION_DDOT":0},{"OBJECT_NAME":"ONEWEB-0428","OBJECT_ID":"2022-012H","EPOCH":"2025-07-27T17:18:17.191584","MEAN_MOTION":13.10371017,"ECCENTRICITY":0.000199,"INCLINATION":87.8803,"RA_OF_ASC_NODE":100.9963,"ARG_OF_PERICENTER":73.7387,"MEAN_ANOMALY":286.3959,"EPHEMERIS_TYPE":0,"CLASSIFICATION_TYPE":"U","NORAD_CAT_ID":51629,"ELEMENT_SET_NO":999,"REV_AT_EPOCH":16679,"BSTAR":-0.0014877,"MEAN_MOTION_DOT":-5.07e-6,"MEAN_MOTION_DDOT":0},{"OBJECT_NAME":"ONEWEB-0431","OBJECT_ID":"2022-012J","EPOCH":"2025-07-27T16:35:05.345376","MEAN_MOTION":13.1037385,"ECCENTRICITY":0.0002123,"INCLINATION":87.8801,"RA_OF_ASC_NODE":100.9722,"ARG_OF_PERICENTER":62.1494,"MEAN_ANOMALY":297.9848,"EPHEMERIS_TYPE":0,"CLASSIFICATION_TYPE":"U","NORAD_CAT_ID":51630,"ELEMENT_SET_NO":999,"REV_AT_EPOCH":16684,"BSTAR":0.0019237,"MEAN_MOTION_DOT":6.84e-6,"MEAN_MOTION_DDOT":0},{"OBJECT_NAME":"ONEWEB-0434","OBJECT_ID":"2022-012K","EPOCH":"2025-07-28T04:51:28.642176","MEAN_MOTION":13.1037624,"ECCENTRICITY":0.000172,"INCLINATION":87.8812,"RA_OF_ASC_NODE":100.9133,"ARG_OF_PERICENTER":97.7482,"MEAN_ANOMALY":262.3841,"EPHEMERIS_TYPE":0,"CLASSIFICATION_TYPE":"U","NORAD_CAT_ID":51631,"ELEMENT_SET_NO":999,"REV_AT_EPOCH":16818,"BSTAR":-0.00097348,"MEAN_MOTION_DOT":-3.27e-6,"MEAN_MOTION_DDOT":0},{"OBJECT_NAME":"ONEWEB-0435","OBJECT_ID":"2022-012L","EPOCH":"2025-07-27T18:03:42.893856","MEAN_MOTION":13.10376313,"ECCENTRICITY":0.0002261,"INCLINATION":87.881,"RA_OF_ASC_NODE":100.9956,"ARG_OF_PERICENTER":74.8403,"MEAN_ANOMALY":285.2974,"EPHEMERIS_TYPE":0,"CLASSIFICATION_TYPE":"U","NORAD_CAT_ID":51632,"ELEMENT_SET_NO":999,"REV_AT_EPOCH":16682,"BSTAR":0.00073178,"MEAN_MOTION_DOT":2.68e-6,"MEAN_MOTION_DDOT":0},{"OBJECT_NAME":"ONEWEB-0436","OBJECT_ID":"2022-012M","EPOCH":"2025-07-27T21:19:54.244992","MEAN_MOTION":13.17648514,"ECCENTRICITY":0.0001961,"INCLINATION":87.9032,"RA_OF_ASC_NODE":70.3879,"ARG_OF_PERICENTER":77.9662,"MEAN_ANOMALY":282.1689,"EPHEMERIS_TYPE":0,"CLASSIFICATION_TYPE":"U","NORAD_CAT_ID":51633,"ELEMENT_SET_NO":999,"REV_AT_EPOCH":17097,"BSTAR":-0.00061303,"MEAN_MOTION_DOT":-2.25e-6,"MEAN_MOTION_DDOT":0},{"OBJECT_NAME":"ONEWEB-0438","OBJECT_ID":"2022-012N","EPOCH":"2025-07-28T04:39:31.294080","MEAN_MOTION":13.1037395,"ECCENTRICITY":0.0001753,"INCLINATION":87.8808,"RA_OF_ASC_NODE":100.9085,"ARG_OF_PERICENTER":81.9749,"MEAN_ANOMALY":278.1577,"EPHEMERIS_TYPE":0,"CLASSIFICATION_TYPE":"U","NORAD_CAT_ID":51634,"ELEMENT_SET_NO":999,"REV_AT_EPOCH":16820,"BSTAR":-0.0018106,"MEAN_MOTION_DOT":-6.19e-6,"MEAN_MOTION_DDOT":0},{"OBJECT_NAME":"ONEWEB-0439","OBJECT_ID":"2022-012P","EPOCH":"2025-07-27T17:44:34.506528","MEAN_MOTION":13.10374845,"ECCENTRICITY":0.0001922,"INCLINATION":87.8809,"RA_OF_ASC_NODE":100.9868,"ARG_OF_PERICENTER":77.6653,"MEAN_ANOMALY":282.469,"EPHEMERIS_TYPE":0,"CLASSIFICATION_TYPE":"U","NORAD_CAT_ID":51635,"ELEMENT_SET_NO":999,"REV_AT_EPOCH":16683,"BSTAR":-0.0012333,"MEAN_MOTION_DOT":-4.18e-6,"MEAN_MOTION_DDOT":0},{"OBJECT_NAME":"ONEWEB-0442","OBJECT_ID":"2022-012Q","EPOCH":"2025-07-27T21:08:59.263872","MEAN_MOTION":13.17649221,"ECCENTRICITY":0.0001282,"INCLINATION":87.9038,"RA_OF_ASC_NODE":70.4426,"ARG_OF_PERICENTER":98.7368,"MEAN_ANOMALY":261.3909,"EPHEMERIS_TYPE":0,"CLASSIFICATION_TYPE":"U","NORAD_CAT_ID":51636,"ELEMENT_SET_NO":999,"REV_AT_EPOCH":17096,"BSTAR":-1.9944e-5,"MEAN_MOTION_DOT":5.0e-8,"MEAN_MOTION_DDOT":0},{"OBJECT_NAME":"ONEWEB-0443","OBJECT_ID":"2022-012R","EPOCH":"2025-07-27T21:36:55.625184","MEAN_MOTION":13.17649925,"ECCENTRICITY":0.0001899,"INCLINATION":87.9033,"RA_OF_ASC_NODE":70.4484,"ARG_OF_PERICENTER":92.7654,"MEAN_ANOMALY":267.3695,"EPHEMERIS_TYPE":0,"CLASSIFICATION_TYPE":"U","NORAD_CAT_ID":51637,"ELEMENT_SET_NO":999,"REV_AT_EPOCH":17101,"BSTAR":0.00010722,"MEAN_MOTION_DOT":5.5e-7,"MEAN_MOTION_DDOT":0},{"OBJECT_NAME":"ONEWEB-0444","OBJECT_ID":"2022-012S","EPOCH":"2025-07-28T04:29:57.848640","MEAN_MOTION":13.10372414,"ECCENTRICITY":0.0001999,"INCLINATION":87.8804,"RA_OF_ASC_NODE":100.8989,"ARG_OF_PERICENTER":78.8381,"MEAN_ANOMALY":281.2971,"EPHEMERIS_TYPE":0,"CLASSIFICATION_TYPE":"U","NORAD_CAT_ID":51638,"ELEMENT_SET_NO":999,"REV_AT_EPOCH":16819,"BSTAR":-0.0018107,"MEAN_MOTION_DOT":-6.19e-6,"MEAN_MOTION_DDOT":0},{"OBJECT_NAME":"ONEWEB-0445","OBJECT_ID":"2022-012T","EPOCH":"2025-07-27T18:01:18.353568","MEAN_MOTION":13.10375333,"ECCENTRICITY":0.0001641,"INCLINATION":87.8803,"RA_OF_ASC_NODE":100.9389,"ARG_OF_PERICENTER":74.9678,"MEAN_ANOMALY":285.1631,"EPHEMERIS_TYPE":0,"CLASSIFICATION_TYPE":"U","NORAD_CAT_ID":51639,"ELEMENT_SET_NO":999,"REV_AT_EPOCH":16685,"BSTAR":-0.00031416,"MEAN_MOTION_DOT":-9.7e-7,"MEAN_MOTION_DDOT":0}]
