ONEWEB-0411             
1 51623U 22012B   25208.72269092 -.00000571  00000+0 -16714-2 0  9993
2 51623  87.8803 100.9827 0001831  57.9407 302.1898 13.10370803166791
ONEWEB-0415             
1 51624U 22012C   25209.17751779 -.00000286  00000+0 -85543-3 0  9992
2 51624  87.8800 100.8954 0001762  67.0476 293.0837 13.10370012168133
ONEWEB-0416             
1 51625U 22012D   25208.73098780 -.00000714  00000+0 -20808-2 0  9998
2 51625  87.8808 101.0030 0001756  76.3325 283.7998 13.10373140166833
ONEWEB-0422             
1 51626U 22012E   25208.90401692  .00000092  00000+0  20278-3 0  9997
2 51626  87.9042  70.3910 0002518  78.2266 281.9148 13.17650314171103
ONEWEB-0423             
1 51627U 22012F   25208.89726747  .00000083  00000+0  18129-3 0  9999
2 51627  87.9043  70.4005 0001853  84.1823 275.9519 13.17649871170994
ONEWEB-0425             
1 51628U 22012G   25208.66459507 -.00000329  00000+0 -98008-3 0  9991
2 51628  87.8810 100.9860 0001691  86.8152 273.3169 13.10376129166824
ONEWEB-0428             
1 51629U 22012H   25208.72103231 -.00000507  00000+0 -14877-2 0  9998
2 51629  87.8803 100.9963 0001990  73.7387 286.3959 13.10371017166796
ONEWEB-0431             
1 51630U 22012J   25208.69103409  .00000684  00000+0  19237-2 0  9992
2 51630  87.8801 100.9722 0002123  62.1494 297.9848 13.10373850166847
ONEWEB-0434             
1 51631U 22012K   25209.20241484 -.00000327  00000+0 -97348-3 0  9993
2 51631  87.8812 100.9133 0001720  97.7482 262.3841 13.10376240168183
ONEWEB-0435             
1 51632U 22012L   25208.75257979  .00000268  00000+0  73178-3 0  9996
2 51632  87.8810 100.9956 0002261  74.8403 285.2974 13.10376313166826
ONEWEB-0436             
1 51633U 22012M   25208.88882228 -.00000225  00000+0 -61303-3 0  9994
2 51633  87.9032  70.3879 0001961  77.9662 282.1689 13.17648514170977
ONEWEB-0438             
1 51634U 22012N   25209.19411220 -.00000619  00000+0 -18106-2 0  9999
2 51634  87.8808 100.9085 0001753  81.9749 278.1577 13.10373950168203
ONEWEB-0439             
1 51635U 22012P   25208.73928827 -.00000418  00000+0 -12333-2 0  9998
2 51635  87.8809 100.9868 0001922  77.6653 282.4690 13.10374845166833
ONEWEB-0442             
1 51636U 22012Q   25208.88124148  .00000005  00000+0 -19944-4 0  9997
2 51636  87.9038  70.4426 0001282  98.7368 261.3909 13.17649221170964
ONEWEB-0443             
1 51637U 22012R   25208.90064381  .00000055  00000+0  10722-3 0  9991
2 51637  87.9033  70.4484 0001899  92.7654 267.3695 13.17649925171016
ONEWEB-0444             
1 51638U 22012S   25209.18747510 -.00000619  00000+0 -18107-2 0  9997
2 51638  87.8804 100.8989 0001999  78.8381 281.2971 13.10372414168199
ONEWEB-0445             
1 51639U 22012T   25208.75090687 -.00000097  00000+0 -31416-3 0  9995
2 51639  87.8803 100.9389 0001641  74.9678 285.1631 13.10375333166854
